{
  "type": "FeatureCollection",
  "features": [
    {
      "type": "Feature",
      "properties": {
        "norad_id": 34459,
        "name": "COSMOS 2251 DEB",
        "group": "cosmos-2251-debris",
        "lat": -31.288738187286686,
        "lon": 92.90598564324354,
        "alt_km": 968.1890076259351,
        "timestamp": "2025-12-07T14:37:05.597987+00:00",
        "meta_object_name": "COSMOS 2251 DEB",
        "meta_object_id": "1993-036TC",
        "meta_epoch": "2025-12-06T20:26:57.880320",
        "meta_mean_motion": 14.00483138,
        "meta_eccentricity": 0.01919665,
        "meta_inclination": 74.0791,
        "meta_ra_of_asc_node": 264.2244,
        "meta_arg_of_pericenter": 335.3297,
        "meta_mean_anomaly": 23.8743,
        "meta_ephemeris_type": 0,
        "meta_classification_type": "U",
        "meta_norad_cat_id": 34459,
        "meta_element_set_no": 999,
        "meta_rev_at_epoch": 85629,
        "meta_bstar": 0.0010269559,
        "meta_mean_motion_dot": 1.763e-05,
        "meta_mean_motion_ddot": 0,
        "tle_line1": "1 34459U 93036TC  25340.85205880  .00001763  00000+0  10270-2 0  9994",
        "tle_line2": "2 34459  74.0791 264.2244 0191966 335.3297  23.8743 14.00483138856292"
      },
      "geometry": {
        "type": "Point",
        "coordinates": [
          92.90598564324354,
          -31.288738187286686
        ]
      }
    },
    {
      "type": "Feature",
      "properties": {
        "norad_id": 34464,
        "name": "COSMOS 2251 DEB",
        "group": "cosmos-2251-debris",
        "lat": -8.801652367075455,
        "lon": -88.2847163390708,
        "alt_km": 488.36443052983304,
        "timestamp": "2025-12-07T14:37:05.597997+00:00",
        "meta_object_name": "COSMOS 2251 DEB",
        "meta_object_id": "1993-036TH",
        "meta_epoch": "2025-12-06T15:45:39.695616",
        "meta_mean_motion": 15.25754557,
        "meta_eccentricity": 0.00169596,
        "meta_inclination": 73.991,
        "meta_ra_of_asc_node": 91.1862,
        "meta_arg_of_pericenter": 265.2454,
        "meta_mean_anomaly": 94.6809,
        "meta_ephemeris_type": 0,
        "meta_classification_type": "U",
        "meta_norad_cat_id": 34464,
        "meta_element_set_no": 999,
        "meta_rev_at_epoch": 89747,
        "meta_bstar": 0.0047985155,
        "meta_mean_motion_dot": 0.0012506,
        "meta_mean_motion_ddot": 0,
        "tle_line1": "1 34464U 93036TH  25340.65670944  .00125060  00000+0  47985-2 0  9995",
        "tle_line2": "2 34464  73.9910  91.1862 0016959 265.2454  94.6809 15.25754557897474"
      },
      "geometry": {
        "type": "Point",
        "coordinates": [
          -88.2847163390708,
          -8.801652367075455
        ]
      }
    },
    {
      "type": "Feature",
      "properties": {
        "norad_id": 34468,
        "name": "COSMOS 2251 DEB",
        "group": "cosmos-2251-debris",
        "lat": 63.80817878459395,
        "lon": 162.46783758289672,
        "alt_km": 776.5404091997989,
        "timestamp": "2025-12-07T14:37:05.598006+00:00",
        "meta_object_name": "COSMOS 2251 DEB",
        "meta_object_id": "1993-036TM",
        "meta_epoch": "2025-12-06T20:03:14.150016",
        "meta_mean_motion": 14.47600967,
        "meta_eccentricity": 0.00763358,
        "meta_inclination": 74.0126,
        "meta_ra_of_asc_node": 128.2651,
        "meta_arg_of_pericenter": 274.3838,
        "meta_mean_anomaly": 84.8602,
        "meta_ephemeris_type": 0,
        "meta_classification_type": "U",
        "meta_norad_cat_id": 34468,
        "meta_element_set_no": 999,
        "meta_rev_at_epoch": 88376,
        "meta_bstar": 0.00063143422,
        "meta_mean_motion_dot": 2.383e-05,
        "meta_mean_motion_ddot": 0,
        "tle_line1": "1 34468U 93036TM  25340.83558044  .00002383  00000+0  63143-3 0  9992",
        "tle_line2": "2 34468  74.0126 128.2651 0076335 274.3838  84.8602 14.47600967883765"
      },
      "geometry": {
        "type": "Point",
        "coordinates": [
          162.46783758289672,
          63.80817878459395
        ]
      }
    },
    {
      "type": "Feature",
      "properties": {
        "norad_id": 34472,
        "name": "COSMOS 2251 DEB",
        "group": "cosmos-2251-debris",
        "lat": 69.97148563635116,
        "lon": 158.0956976248047,
        "alt_km": 1219.1076698256102,
        "timestamp": "2025-12-07T14:37:05.598016+00:00",
        "meta_object_name": "COSMOS 2251 DEB",
        "meta_object_id": "1993-036TR",
        "meta_epoch": "2025-12-05T14:54:42.312384",
        "meta_mean_motion": 13.70313607,
        "meta_eccentricity": 0.03279919,
        "meta_inclination": 74.0837,
        "meta_ra_of_asc_node": 109.8506,
        "meta_arg_of_pericenter": 242.3718,
        "meta_mean_anomaly": 114.375,
        "meta_ephemeris_type": 0,
        "meta_classification_type": "U",
        "meta_norad_cat_id": 34472,
        "meta_element_set_no": 999,
        "meta_rev_at_epoch": 83629,
        "meta_bstar": 0.0014763428,
        "meta_mean_motion_dot": 1.882e-05,
        "meta_mean_motion_ddot": 0,
        "tle_line1": "1 34472U 93036TR  25339.62132306  .00001882  00000+0  14763-2 0  9997",
        "tle_line2": "2 34472  74.0837 109.8506 0327991 242.3718 114.3750 13.70313607836298"
      },
      "geometry": {
        "type": "Point",
        "coordinates": [
          158.0956976248047,
          69.97148563635116
        ]
      }
    },
    {
      "type": "Feature",
      "properties": {
        "norad_id": 34474,
        "name": "COSMOS 2251 DEB",
        "group": "cosmos-2251-debris",
        "lat": -73.61452653734264,
        "lon": -128.74644225522113,
        "alt_km": 994.251070317262,
        "timestamp": "2025-12-07T14:37:05.598026+00:00",
        "meta_object_name": "COSMOS 2251 DEB",
        "meta_object_id": "1993-036TT",
        "meta_epoch": "2025-12-06T10:44:32.848224",
        "meta_mean_motion": 14.06352202,
        "meta_eccentricity": 0.01979317,
        "meta_inclination": 74.078,
        "meta_ra_of_asc_node": 337.1621,
        "meta_arg_of_pericenter": 52.6434,
        "meta_mean_anomaly": 96.6204,
        "meta_ephemeris_type": 0,
        "meta_classification_type": "U",
        "meta_norad_cat_id": 34474,
        "meta_element_set_no": 999,
        "meta_rev_at_epoch": 85420,
        "meta_bstar": 0.0027523724,
        "meta_mean_motion_dot": 5.403e-05,
        "meta_mean_motion_ddot": 0,
        "tle_line1": "1 34474U 93036TT  25340.44760241  .00005403  00000+0  27524-2 0  9998",
        "tle_line2": "2 34474  74.0780 337.1621 0197931  52.6434  96.6204 14.06352202854208"
      },
      "geometry": {
        "type": "Point",
        "coordinates": [
          -128.74644225522113,
          -73.61452653734264
        ]
      }
    },
    {
      "type": "Feature",
      "properties": {
        "norad_id": 34476,
        "name": "COSMOS 2251 DEB",
        "group": "cosmos-2251-debris",
        "lat": -28.4091507798904,
        "lon": 82.22745399214747,
        "alt_km": 739.6037424647911,
        "timestamp": "2025-12-07T14:37:05.598037+00:00",
        "meta_object_name": "COSMOS 2251 DEB",
        "meta_object_id": "1993-036TV",
        "meta_epoch": "2025-12-06T17:54:22.363488",
        "meta_mean_motion": 13.81942148,
        "meta_eccentricity": 0.0319344,
        "meta_inclination": 74.0061,
        "meta_ra_of_asc_node": 92.6058,
        "meta_arg_of_pericenter": 313.5001,
        "meta_mean_anomaly": 43.9973,
        "meta_ephemeris_type": 0,
        "meta_classification_type": "U",
        "meta_norad_cat_id": 34476,
        "meta_element_set_no": 999,
        "meta_rev_at_epoch": 83555,
        "meta_bstar": 0.0048589185,
        "meta_mean_motion_dot": 7.676e-05,
        "meta_mean_motion_ddot": 0,
        "tle_line1": "1 34476U 93036TV  25340.74609217  .00007676  00000+0  48589-2 0  9996",
        "tle_line2": "2 34476  74.0061  92.6058 0319344 313.5001  43.9973 13.81942148835553"
      },
      "geometry": {
        "type": "Point",
        "coordinates": [
          82.22745399214747,
          -28.4091507798904
        ]
      }
    },
    {
      "type": "Feature",
      "properties": {
        "norad_id": 34477,
        "name": "COSMOS 2251 DEB",
        "group": "cosmos-2251-debris",
        "lat": -69.66457042087092,
        "lon": 28.450023164072135,
        "alt_km": 657.8648044457414,
        "timestamp": "2025-12-07T14:37:05.598047+00:00",
        "meta_object_name": "COSMOS 2251 DEB",
        "meta_object_id": "1993-036TW",
        "meta_epoch": "2025-12-06T18:15:49.682016",
        "meta_mean_motion": 14.56794252,
        "meta_eccentricity": 0.00769301,
        "meta_inclination": 73.9795,
        "meta_ra_of_asc_node": 80.8936,
        "meta_arg_of_pericenter": 269.1521,
        "meta_mean_anomaly": 247.291,
        "meta_ephemeris_type": 0,
        "meta_classification_type": "U",
        "meta_norad_cat_id": 34477,
        "meta_element_set_no": 999,
        "meta_rev_at_epoch": 88538,
        "meta_bstar": 0.0015020181,
        "meta_mean_motion_dot": 6.975e-05,
        "meta_mean_motion_ddot": 0,
        "tle_line1": "1 34477U 93036TW  25340.76099169  .00006975  00000+0  15020-2 0  9993",
        "tle_line2": "2 34477  73.9795  80.8936 0076930 269.1521 247.2910 14.56794252885384"
      },
      "geometry": {
        "type": "Point",
        "coordinates": [
          28.450023164072135,
          -69.66457042087092
        ]
      }
    }
  ]
}